ONEWEB-0612             
1 54675U 22166AK  23253.79856122  .00000030  00000+0  41666-4 0  9998
2 54675  87.9167  85.1456 0001373  77.1416 282.9872 13.21827207 38424
ONEWEB-0615             
1 54676U 22166AL  23253.77965109  .00000102  00000+0  21564-3 0  9997
2 54676  87.9178  85.1583 0001571  91.9831 268.1482 13.21827060 38434
ONEWEB-0655             
1 54677U 22166AM  23253.52729733  .00000453  00000+0  10658-2 0  9992
2 54677  87.9168  85.2180 0001568  95.6248 264.5065 13.21825103 37923
ONEWEB-0659             
1 54678U 22166AN  23253.54414779  .00000025  00000+0  29901-4 0  9994
2 54678  87.9145  85.2490 0001987  79.8520 280.2838 13.21826795 38017
ONEWEB-0685             
1 54679U 22166AP  23253.54624443  .00000034  00000+0  51612-4 0  9990
2 54679  87.9173  85.2057 0001119 117.8076 242.3171 13.21824438 37902
ONEWEB-0712             
1 54680U 22166AQ  23253.54028477 -.00000025  00000+0 -83678-4 0  9996
2 54680  87.9347  69.8916 0001662  87.0673 273.0655 13.29378206 39054
ONEWEB-0714             
1 54681U 22166AR  23253.55045099  .00000050  00000+0  90468-4 0  9998
2 54681  87.9168  85.1968 0001478  95.9129 264.2173 13.21826358 38024
ONEWEB-0532             
1 55140U 23004A   23253.38836475  .00000078  00000+0  13678-3 0  9995
2 55140  87.9746 206.6970 0004149 102.3921 257.7682 13.30872825 34467
